STARLINK-35810          
1 66575U 25268U   25342.25003472 -.02050575  00000+0 -33651-1 0  9995
2 66575  43.0004 147.3849 0001381 265.9084 328.2137 15.54790055  3948
STARLINK-35814          
1 66576U 25268V   25342.25003472 -.02054015  00000+0 -33711-1 0  9996
2 66576  43.0002 147.3802 0001319 261.3624 334.6752 15.54793377  3941
STARLINK-35815          
1 66577U 25268W   25342.25003472 -.02047858  00000+0 -33602-1 0  9993
2 66577  43.0000 147.3753 0001427 262.6830 335.2721 15.54789316  3949
STARLINK-35743          
1 66578U 25268X   25342.25003472 -.02058379  00000+0 -33788-1 0  9999
2 66578  43.0000 147.3702 0001342 263.5532 336.3184 15.54795655  3947
STARLINK-35868          
1 66579U 25268Y   25342.25003472 -.02049905  00000+0 -33639-1 0  9990
2 66579  43.0002 147.3652 0001377 262.1333 339.6565 15.54790251  3942
STARLINK-35872          
1 66580U 25268Z   25342.25003472 -.02055971  00000+0 -33745-1 0  9990
2 66580  43.0004 147.3609 0001406 258.9395 344.7661 15.54794200  3944
STARLINK-35744          
1 66581U 25268AA  25342.25003472 -.02051656  00000+0 -33670-1 0  9994
2 66581  43.0004 147.3548 0001457 262.0404 343.5834 15.54790484  3893
STARLINK-35746          
1 66582U 25268AB  25342.25003472 -.02041797  00000+0 -33494-1 0  9994
2 66582  43.0006 147.3501 0001428 259.6296 347.9126 15.54786186  3946
STARLINK-35941          
1 66583U 25268AC  25342.25003472 -.02048893  00000+0 -33619-1 0  9998
2 66583  43.0004 147.3464 0001394 266.6560 342.7992 15.54791273  3944
STARLINK-35939          
1 66584U 25268AD  25342.25003472 -.02043501  00000+0 -33526-1 0  9997
2 66584  43.0007 147.3419 0001368 261.6965 349.6803 15.54786443  3943
STARLINK-35963          
1 66585U 25268AE  25342.25003472 -.02046753  00000+0 -33579-1 0  9998
2 66585  43.0003 147.3372 0001540 263.5052 349.7845 15.54789977  3940
TJS-21                  
1 66586U 25269A   25340.74145373  .00001105  00000+0 -14744-1 0  9991
2 66586  63.2668 162.9832 6805236 269.7989  18.6583  2.00560491   328
