CCSDS_OMM_VERS = 2.0
CREATION_DATE  = 
ORIGINATOR     = 

OBJECT_NAME    = STARLINK-35810
OBJECT_ID      = 2025-268U
CENTER_NAME    = EARTH
REF_FRAME      = TEME
TIME_SYSTEM    = UTC
MEAN_ELEMENT_THEORY = SGP/SGP4

EPOCH          = 2025-12-08T06:00:02.999808
MEAN_MOTION    = 15.54790055
ECCENTRICITY   = .00013814
INCLINATION    = 43.0004
RA_OF_ASC_NODE = 147.3849
ARG_OF_PERICENTER = 265.9084
MEAN_ANOMALY   = 328.2137

EPHEMERIS_TYPE = 0
CLASSIFICATION_TYPE = U
NORAD_CAT_ID   = 66575
ELEMENT_SET_NO = 999
REV_AT_EPOCH   = 394
BSTAR          = -.33651387E-1
MEAN_MOTION_DOT = -.2050575E-1
MEAN_MOTION_DDOT = 0

CCSDS_OMM_VERS = 2.0
CREATION_DATE  = 
ORIGINATOR     = 

OBJECT_NAME    = STARLINK-35814
OBJECT_ID      = 2025-268V
CENTER_NAME    = EARTH
REF_FRAME      = TEME
TIME_SYSTEM    = UTC
MEAN_ELEMENT_THEORY = SGP/SGP4

EPOCH          = 2025-12-08T06:00:02.999808
MEAN_MOTION    = 15.54793377
ECCENTRICITY   = .00013193
INCLINATION    = 43.0002
RA_OF_ASC_NODE = 147.3802
ARG_OF_PERICENTER = 261.3624
MEAN_ANOMALY   = 334.6752

EPHEMERIS_TYPE = 0
CLASSIFICATION_TYPE = U
NORAD_CAT_ID   = 66576
ELEMENT_SET_NO = 999
REV_AT_EPOCH   = 394
BSTAR          = -.33711222E-1
MEAN_MOTION_DOT = -.2054015E-1
MEAN_MOTION_DDOT = 0

CCSDS_OMM_VERS = 2.0
CREATION_DATE  = 
ORIGINATOR     = 

OBJECT_NAME    = STARLINK-35815
OBJECT_ID      = 2025-268W
CENTER_NAME    = EARTH
REF_FRAME      = TEME
TIME_SYSTEM    = UTC
MEAN_ELEMENT_THEORY = SGP/SGP4

EPOCH          = 2025-12-08T06:00:02.999808
MEAN_MOTION    = 15.54789316
ECCENTRICITY   = .00014273
INCLINATION    = 43.0000
RA_OF_ASC_NODE = 147.3753
ARG_OF_PERICENTER = 262.6830
MEAN_ANOMALY   = 335.2721

EPHEMERIS_TYPE = 0
CLASSIFICATION_TYPE = U
NORAD_CAT_ID   = 66577
ELEMENT_SET_NO = 999
REV_AT_EPOCH   = 394
BSTAR          = -.33601815E-1
MEAN_MOTION_DOT = -.2047858E-1
MEAN_MOTION_DDOT = 0

CCSDS_OMM_VERS = 2.0
CREATION_DATE  = 
ORIGINATOR     = 

OBJECT_NAME    = STARLINK-35743
OBJECT_ID      = 2025-268X
CENTER_NAME    = EARTH
REF_FRAME      = TEME
TIME_SYSTEM    = UTC
MEAN_ELEMENT_THEORY = SGP/SGP4

EPOCH          = 2025-12-08T06:00:02.999808
MEAN_MOTION    = 15.54795655
ECCENTRICITY   = .00013421
INCLINATION    = 43.0000
RA_OF_ASC_NODE = 147.3702
ARG_OF_PERICENTER = 263.5532
MEAN_ANOMALY   = 336.3184

EPHEMERIS_TYPE = 0
CLASSIFICATION_TYPE = U
NORAD_CAT_ID   = 66578
ELEMENT_SET_NO = 999
REV_AT_EPOCH   = 394
BSTAR          = -.33788409E-1
MEAN_MOTION_DOT = -.2058379E-1
MEAN_MOTION_DDOT = 0

CCSDS_OMM_VERS = 2.0
CREATION_DATE  = 
ORIGINATOR     = 

OBJECT_NAME    = STARLINK-35868
OBJECT_ID      = 2025-268Y
CENTER_NAME    = EARTH
REF_FRAME      = TEME
TIME_SYSTEM    = UTC
MEAN_ELEMENT_THEORY = SGP/SGP4

EPOCH          = 2025-12-08T06:00:02.999808
MEAN_MOTION    = 15.54790251
ECCENTRICITY   = .00013778
INCLINATION    = 43.0002
RA_OF_ASC_NODE = 147.3652
ARG_OF_PERICENTER = 262.1333
MEAN_ANOMALY   = 339.6565

EPHEMERIS_TYPE = 0
CLASSIFICATION_TYPE = U
NORAD_CAT_ID   = 66579
ELEMENT_SET_NO = 999
REV_AT_EPOCH   = 394
BSTAR          = -.33638854E-1
MEAN_MOTION_DOT = -.2049905E-1
MEAN_MOTION_DDOT = 0

CCSDS_OMM_VERS = 2.0
CREATION_DATE  = 
ORIGINATOR     = 

OBJECT_NAME    = STARLINK-35872
OBJECT_ID      = 2025-268Z
CENTER_NAME    = EARTH
REF_FRAME      = TEME
TIME_SYSTEM    = UTC
MEAN_ELEMENT_THEORY = SGP/SGP4

EPOCH          = 2025-12-08T06:00:02.999808
MEAN_MOTION    = 15.54794200
ECCENTRICITY   = .00014064
INCLINATION    = 43.0004
RA_OF_ASC_NODE = 147.3609
ARG_OF_PERICENTER = 258.9395
MEAN_ANOMALY   = 344.7661

EPHEMERIS_TYPE = 0
CLASSIFICATION_TYPE = U
NORAD_CAT_ID   = 66580
ELEMENT_SET_NO = 999
REV_AT_EPOCH   = 394
BSTAR          = -.33745179E-1
MEAN_MOTION_DOT = -.2055971E-1
MEAN_MOTION_DDOT = 0

CCSDS_OMM_VERS = 2.0
CREATION_DATE  = 
ORIGINATOR     = 

OBJECT_NAME    = STARLINK-35744
OBJECT_ID      = 2025-268AA
CENTER_NAME    = EARTH
REF_FRAME      = TEME
TIME_SYSTEM    = UTC
MEAN_ELEMENT_THEORY = SGP/SGP4

EPOCH          = 2025-12-08T06:00:02.999808
MEAN_MOTION    = 15.54790484
ECCENTRICITY   = .00014573
INCLINATION    = 43.0004
RA_OF_ASC_NODE = 147.3548
ARG_OF_PERICENTER = 262.0404
MEAN_ANOMALY   = 343.5834

EPHEMERIS_TYPE = 0
CLASSIFICATION_TYPE = U
NORAD_CAT_ID   = 66581
ELEMENT_SET_NO = 999
REV_AT_EPOCH   = 389
BSTAR          = -.33669847E-1
MEAN_MOTION_DOT = -.2051656E-1
MEAN_MOTION_DDOT = 0

CCSDS_OMM_VERS = 2.0
CREATION_DATE  = 
ORIGINATOR     = 

OBJECT_NAME    = STARLINK-35746
OBJECT_ID      = 2025-268AB
CENTER_NAME    = EARTH
REF_FRAME      = TEME
TIME_SYSTEM    = UTC
MEAN_ELEMENT_THEORY = SGP/SGP4

EPOCH          = 2025-12-08T06:00:02.999808
MEAN_MOTION    = 15.54786186
ECCENTRICITY   = .00014288
INCLINATION    = 43.0006
RA_OF_ASC_NODE = 147.3501
ARG_OF_PERICENTER = 259.6296
MEAN_ANOMALY   = 347.9126

EPHEMERIS_TYPE = 0
CLASSIFICATION_TYPE = U
NORAD_CAT_ID   = 66582
ELEMENT_SET_NO = 999
REV_AT_EPOCH   = 394
BSTAR          = -.33494295E-1
MEAN_MOTION_DOT = -.2041797E-1
MEAN_MOTION_DDOT = 0

CCSDS_OMM_VERS = 2.0
CREATION_DATE  = 
ORIGINATOR     = 

OBJECT_NAME    = STARLINK-35941
OBJECT_ID      = 2025-268AC
CENTER_NAME    = EARTH
REF_FRAME      = TEME
TIME_SYSTEM    = UTC
MEAN_ELEMENT_THEORY = SGP/SGP4

EPOCH          = 2025-12-08T06:00:02.999808
MEAN_MOTION    = 15.54791273
ECCENTRICITY   = .00013941
INCLINATION    = 43.0004
RA_OF_ASC_NODE = 147.3464
ARG_OF_PERICENTER = 266.6560
MEAN_ANOMALY   = 342.7992

EPHEMERIS_TYPE = 0
CLASSIFICATION_TYPE = U
NORAD_CAT_ID   = 66583
ELEMENT_SET_NO = 999
REV_AT_EPOCH   = 394
BSTAR          = -.33618799E-1
MEAN_MOTION_DOT = -.2048893E-1
MEAN_MOTION_DDOT = 0

CCSDS_OMM_VERS = 2.0
CREATION_DATE  = 
ORIGINATOR     = 

OBJECT_NAME    = STARLINK-35939
OBJECT_ID      = 2025-268AD
CENTER_NAME    = EARTH
REF_FRAME      = TEME
TIME_SYSTEM    = UTC
MEAN_ELEMENT_THEORY = SGP/SGP4

EPOCH          = 2025-12-08T06:00:02.999808
MEAN_MOTION    = 15.54786443
ECCENTRICITY   = .00013686
INCLINATION    = 43.0007
RA_OF_ASC_NODE = 147.3419
ARG_OF_PERICENTER = 261.6965
MEAN_ANOMALY   = 349.6803

EPHEMERIS_TYPE = 0
CLASSIFICATION_TYPE = U
NORAD_CAT_ID   = 66584
ELEMENT_SET_NO = 999
REV_AT_EPOCH   = 394
BSTAR          = -.33525994E-1
MEAN_MOTION_DOT = -.2043501E-1
MEAN_MOTION_DDOT = 0

CCSDS_OMM_VERS = 2.0
CREATION_DATE  = 
ORIGINATOR     = 

OBJECT_NAME    = STARLINK-35963
OBJECT_ID      = 2025-268AE
CENTER_NAME    = EARTH
REF_FRAME      = TEME
TIME_SYSTEM    = UTC
MEAN_ELEMENT_THEORY = SGP/SGP4

EPOCH          = 2025-12-08T06:00:02.999808
MEAN_MOTION    = 15.54789977
ECCENTRICITY   = .00015409
INCLINATION    = 43.0003
RA_OF_ASC_NODE = 147.3372
ARG_OF_PERICENTER = 263.5052
MEAN_ANOMALY   = 349.7845

EPHEMERIS_TYPE = 0
CLASSIFICATION_TYPE = U
NORAD_CAT_ID   = 66585
ELEMENT_SET_NO = 999
REV_AT_EPOCH   = 394
BSTAR          = -.33579348E-1
MEAN_MOTION_DOT = -.2046753E-1
MEAN_MOTION_DDOT = 0

CCSDS_OMM_VERS = 2.0
CREATION_DATE  = 
ORIGINATOR     = 

OBJECT_NAME    = TJS-21
OBJECT_ID      = 2025-269A
CENTER_NAME    = EARTH
REF_FRAME      = TEME
TIME_SYSTEM    = UTC
MEAN_ELEMENT_THEORY = SGP/SGP4

EPOCH          = 2025-12-06T17:47:41.602272
MEAN_MOTION    = 2.00560491
ECCENTRICITY   = .68052367
INCLINATION    = 63.2668
RA_OF_ASC_NODE = 162.9832
ARG_OF_PERICENTER = 269.7989
MEAN_ANOMALY   = 18.6583

EPHEMERIS_TYPE = 0
CLASSIFICATION_TYPE = U
NORAD_CAT_ID   = 66586
ELEMENT_SET_NO = 999
REV_AT_EPOCH   = 32
BSTAR          = -.14744059E-1
MEAN_MOTION_DOT = .1105E-4
MEAN_MOTION_DDOT = 0

